IRIDIUM 63              
1 25286U 98021B   25187.75264779  .00000254  00000+0  79615-4 0  9995
2 25286  86.3963  73.9238 0002064  89.5671 270.5763 14.36556915426658
IRIDIUM 69              
1 25319U 98026A   25187.84414715  .00000347  00000+0  10178-3 0  9995
2 25319  86.3964  87.1173 0002096  18.2499 341.8775 14.40983007425894
IRIDIUM 71              
1 25320U 98026B   25187.77897556  .00000287  00000+0  82898-4 0  9999
2 25320  86.3960  81.8316 0003666  54.1389 306.0150 14.41170782426411
IRIDIUM 73              
1 25344U 98032C   25187.63740050  .00000386  00000+0  90956-4 0  9997
2 25344  86.4399  38.5534 0001615  80.1555 279.9832 14.51730719433383
IRIDIUM 82              
1 25467U 98051A   25187.81046659  .00016764  00000+0  47131-3 0  9991
2 25467  86.3668 100.0847 0081707 220.2368 139.2818 15.32993448426966
